norad_id,name,regime,epoch,line1,line2,inclination,eccentricity,mean_motion,raan,arg_pericenter,mean_anomaly
36395,SDO,IGO,17055.21343674,1 36395U 10005A   17055.21343674 -.00000086  00000-0  00000+0 0  4775\,2 36395  28.6414 142.4602 0001792 155.7419 190.5388  1.00276690 25937,28.6414,0.0001792,1.0027669,142.4602,155.7419,190.5388
36395,SDO,IGO,17055.43417043,1 36395U 10005A   17055.43417043 -.00000086 +00000-0 +00000-0 0 0001\,2 36395 028.6416 142.4563 0001796 156.0575 269.9121 01.0027664402597,28.6416,0.0001796,1.00276644,142.4563,156.0575,269.9121
36395,SDO,IGO,17056.44909880,1 36395U 10005A   17056.44909880 -.00000083  00000-0  00000+0 0  4786\,2 36395  28.6424 142.4380 0001814 156.3046 276.0730  1.00276522 25956,28.6424,0.0001814,1.00276522,142.438,156.3046,276.073
36395,SDO,IGO,17057.47015404,1 36395U 10005A   17057.47015404 -.00000080  00000-0  00000+0 0  4798\,2 36395  28.6433 142.4194 0001812 156.4081 284.5891  1.00276398 25961,28.6433,0.0001812,1.00276398,142.4194,156.4081,284.5891
36395,SDO,IGO,17058.47265810,1 36395U 10005A   17058.47265810 -.00000077  00000-0  00000+0 0  4805\,2 36395  28.6442 142.4010 0001810 155.9610 286.9581  1.00276265 25974,28.6442,0.000181,1.00276265,142.401,155.961,286.9581
36395,SDO,IGO,17059.34481272,1 36395U 10005A   17059.34481272 -.00000075 +00000-0 +00000-0 0 0001\,2 36395 028.6450 142.3848 0001786 155.7324 242.0498 01.0027613902601,28.645,0.0001786,1.00276139,142.3848,155.7324,242.0498
36395,SDO,IGO,17060.09975017,1 36395U 10005A   17060.09975017 -.00000074  00000-0  00000+0 0  4811\,2 36395  28.6457 142.3709 0001766 154.8079 155.5197  1.00276036 25982,28.6457,0.0001766,1.00276036,142.3709,154.8079,155.5197
36395,SDO,IGO,17060.26298403,1 36395U 10005A   17060.26298403 -.00000074 +00000-0 +00000-0 0 0001\,2 36395 028.6458 142.3677 0001769 154.5846 214.6733 01.0027602002602,28.6458,0.0001769,1.0027602,142.3677,154.5846,214.6733
36395,SDO,IGO,17061.18228163,1 36395U 10005A   17061.18228163 -.00000075  00000-0  00000+0 0  4827\,2 36395  28.6467 142.3506 0001746 153.3417 187.7981  1.00275922 25998,28.6467,0.0001746,1.00275922,142.3506,153.3417,187.7981
36395,SDO,IGO,17061.50734630,1 36395U 10005A   17061.50734630 -.00000076 +00000-0 +00000-0 0 0001\,2 36395 028.6471 142.3446 0001734 153.2883 305.2052 01.0027591302603,28.6471,0.0001734,1.00275913,142.3446,153.2883,305.2052
36395,SDO,IGO,17062.24145441,1 36395U 10005A   17062.24145441 -.00000079  00000-0  00000+0 0  4837\,2 36395  28.6477 142.3308 0001705 152.3764 211.1421  1.00275828 26018,28.6477,0.0001705,1.00275828,142.3308,152.3764,211.1421
36395,SDO,IGO,17063.45874537,1 36395U 10005A   17063.45874537 -.00000086  00000-0  00000+0 0  4845\,2 36395  28.6490 142.3080 0001657 151.3300 291.6505  1.00275776 26020,28.649,0.0001657,1.00275776,142.308,151.33,291.6505
36395,SDO,IGO,17064.48230580,1 36395U 10005A   17064.48230580 -.00000092  00000-0  00000+0 0  4851\,2 36395  28.6501 142.2887 0001622 150.2409 302.2616  1.00275756 26038,28.6501,0.0001622,1.00275756,142.2887,150.2409,302.2616
36395,SDO,IGO,17065.62536031,1 36395U 10005A   17065.62536031 -.00000098  00000-0  00000+0 0  4865\,2 36395  28.6513 142.2674 0001570 149.4428 355.7208  1.00275755 26048,28.6513,0.000157,1.00275755,142.2674,149.4428,355.7208
36395,SDO,IGO,17066.44808892,1 36395U 10005A   17066.44808892 -.00000101 +00000-0 +00000-0 0 0001\,2 36395 028.6522 142.2520 0001519 149.1487 293.0332 01.0027578802608,28.6522,0.0001519,1.00275788,142.252,149.1487,293.0332
36395,SDO,IGO,17068.19423340,1 36395U 10005A   17068.19423340 -.00000102  00000-0  00000+0 0  4875\,2 36395  28.6541 142.2199 0001412 149.0487 203.5192  1.00275859 26066,28.6541,0.0001412,1.00275859,142.2199,149.0487,203.5192
36395,SDO,IGO,17070.32201179,1 36395U 10005A   17070.32201179 -.00000093  00000-0  00000+0 0  4887\,2 36395  28.6563 142.1811 0001305 149.9460 250.7845  1.00275994 26093,28.6563,0.0001305,1.00275994,142.1811,149.946,250.7845
36395,SDO,IGO,17071.22218451,1 36395U 10005A   17071.22218451 -.00000087 +00000-0 +00000-0 0 0001\,2 36395 028.6573 142.1649 0001275 151.0603 214.6473 01.0027605002613,28.6573,0.0001275,1.0027605,142.1649,151.0603,214.6473
36395,SDO,IGO,17072.45579258,1 36395U 10005A   17072.45579258 -.00000080  00000-0  00000+0 0  4896\,2 36395  28.6585 142.1428 0001239 153.1320 297.9283  1.00276109 26110,28.6585,0.0001239,1.00276109,142.1428,153.132,297.9283
36395,SDO,IGO,17073.28979095,1 36395U 10005A   17073.28979095 -.00000076 +00000-0 +00000-0 0 0001\,2 36395 028.6594 142.1280 0001225 154.8931 237.2545 01.0027615602615,28.6594,0.0001225,1.00276156,142.128,154.8931,237.2545
36395,SDO,IGO,17075.60264788,1 36395U 10005A   17075.60264788 -.00000072 +00000-0 +00000-0 0 0001\,2 36395 028.6615 142.0870 0001220 159.6260 347.5011 01.0027619802617,28.6615,0.000122,1.00276198,142.087,159.626,347.5011
36395,SDO,IGO,17076.55716814,1 36395U 10005A   17076.55716814 -.00000072 +00000-0 +00000-0 0 0001\,2 36395 028.6623 142.0702 0001220 161.9253 329.7994 01.0027619802618,28.6623,0.000122,1.00276198,142.0702,161.9253,329.7994
36395,SDO,IGO,17077.44739326,1 36395U 10005A   17077.44739326 -.00000073 +00000-0 +00000-0 0 0492\,2 36395 028.6631 142.0545 0001230 163.5974 289.5133 01.0027618102616,28.6631,0.000123,1.00276181,142.0545,163.5974,289.5133
36395,SDO,IGO,17078.57364111,1 36395U 10005A   17078.57364111 -.00000075 +00000-0 +00000-0 0 0001\,2 36395 028.6641 142.0346 0001249 165.7326 333.9718 01.0027612602620,28.6641,0.0001249,1.00276126,142.0346,165.7326,333.9718
36395,SDO,IGO,17079.23067931,1 36395U 10005A   17079.23067931 -.00000075 +00000-0 +00000-0 0 0001\,2 36395 028.6648 142.0230 0001265 166.0272 210.8787 01.0027607202621,28.6648,0.0001265,1.00276072,142.023,166.0272,210.8787
36395,SDO,IGO,17080.38752492,1 36395U 10005A   17080.38752492 -.00000076 +00000-0 +00000-0 0 0494\,2 36395 028.6658 142.0025 0001297 167.0603 267.4852 01.0027596102619,28.6658,0.0001297,1.00275961,142.0025,167.0603,267.4852
36395,SDO,IGO,17081.22330058,1 36395U 10005A   17081.22330058 -.00000076 +00000-0 +00000-0 0 0001\,2 36395 028.6666 141.9876 0001320 167.3382 208.9354 01.0027586402623,28.6666,0.000132,1.00275864,141.9876,167.3382,208.9354
36395,SDO,IGO,17082.21703132,1 36395U 10005A   17082.21703132 -.00000074 +00000-0 +00000-0 0 0495\,2 36395 028.6675 141.9698 0001347 167.5071 207.5184 01.0027573002621,28.6675,0.0001347,1.0027573,141.9698,167.5071,207.5184
36395,SDO,IGO,17083.13937169,1 36395U 10005A   17083.13937169 -.00000072 +00000-0 +00000-0 0 0001\,2 36395 028.6683 141.9532 0001366 167.5732 180.4310 01.0027560002624,28.6683,0.0001366,1.002756,141.9532,167.5732,180.431
36395,SDO,IGO,17084.51934404,1 36395U 10005A   17084.51934404 -.00000066 +00000-0 +00000-0 0 0001\,2 36395 028.6696 141.9281 0001379 167.4059 318.7884 01.0027538202626,28.6696,0.0001379,1.00275382,141.9281,167.4059,318.7884
36395,SDO,IGO,17085.32850891,1 36395U 10005A   17085.32850891 -.00000063 +00000-0 +00000-0 0 0499\,2 36395 028.6704 141.9131 0001375 167.1779 251.1365 01.0027525602624,28.6704,0.0001375,1.00275256,141.9131,167.1779,251.1365
36395,SDO,IGO,17087.23325889,1 36395U 10005A   17087.23325889 -.00000057 +00000-0 +00000-0 0 0500\,2 36395 028.6724 141.8776 0001336 164.9563 220.9991 01.0027498602626,28.6724,0.0001336,1.00274986,141.8776,164.9563,220.9991
36395,SDO,IGO,17090.30094181,1 36395U 10005A   17090.30094181 -.00000064 +00000-0 +00000-0 0 0501\,2 36395 028.6758 141.8199 0001224 159.4166 254.0117 01.0027470202629,28.6758,0.0001224,1.00274702,141.8199,159.4166,254.0117
36395,SDO,IGO,17091.55304795,1 36395U 10005A   17091.55304795 -.00000071 +00000-0 +00000-0 0 0502\,2 36395 028.6773 141.7965 0001165 157.9156 347.5383 01.0027464602630,28.6773,0.0001165,1.00274646,141.7965,157.9156,347.5383
36395,SDO,IGO,17092.14316610,1 36395U 10005A   17092.14316610 -.00000074 +00000-0 +00000-0 0 0001\,2 36395 028.6780 141.7853 0001137 157.2058 201.2878 01.0027463202633,28.678,0.0001137,1.00274632,141.7853,157.2058,201.2878
36395,SDO,IGO,17093.16946117,1 36395U 10005A   17093.16946117 -.00000079 +00000-0 +00000-0 0 0503\,2 36395 028.6792 141.7661 0001072 156.7767 212.2218 01.0027463002632,28.6792,0.0001072,1.0027463,141.7661,156.7767,212.2218
36395,SDO,IGO,17094.25592678,1 36395U 10005A   17094.25592678 -.00000082 +00000-0 +00000-0 0 0504\,2 36395 028.6805 141.7458 0001001 156.1349 245.0909 01.0027465802633,28.6805,0.0001001,1.00274658,141.7458,156.1349,245.0909
36395,SDO,IGO,17095.30263003,1 36395U 10005A   17095.30263003 -.00000081 +00000-0 +00000-0 0 0505\,2 36395 028.6818 141.7265 0000925 155.9576 263.1406 01.0027470402634,28.6818,9.25e-05,1.00274704,141.7265,155.9576,263.1406
36395,SDO,IGO,17096.38570541,1 36395U 10005A   17096.38570541 -.00000078 +00000-0 +00000-0 0 0506\,2 36395 028.6831 141.7068 0000863 156.0687 294.0325 01.0027476802635,28.6831,8.63e-05,1.00274768,141.7068,156.0687,294.0325
36395,SDO,IGO,17097.46742627,1 36395U 10005A   17097.46742627 -.00000072 +00000-0 +00000-0 0 0507\,2 36395 028.6844 141.6873 0000819 156.7805 323.8349 01.0027483802636,28.6844,8.19e-05,1.00274838,141.6873,156.7805,323.8349
36395,SDO,IGO,17098.14783528,1 36395U 10005A   17098.14783528 -.00000068 +00000-0 +00000-0 0 0001\,2 36395 028.6851 141.6752 0000797 158.4833 207.7679 01.0027488502640,28.6851,7.97e-05,1.00274885,141.6752,158.4833,207.7679
36395,SDO,IGO,17099.31438726,1 36395U 10005A   17099.31438726 -.00000061 +00000-0 +00000-0 0 0508\,2 36395 028.6864 141.6544 0000765 161.0494 266.3412 01.0027495302638,28.6864,7.65e-05,1.00274953,141.6544,161.0494,266.3412
36395,SDO,IGO,17100.41042803,1 36395U 10005A   17100.41042803 -.00000055 +00000-0 +00000-0 0 0509\,2 36395 028.6876 141.6350 0000750 164.2094 298.8653 01.0027500002639,28.6876,7.5e-05,1.00275,141.635,164.2094,298.8653
36395,SDO,IGO,17101.47651745,1 36395U 10005A   17101.47651745 -.00000051 +00000-0 +00000-0 0 0510\,2 36395 028.6887 141.6162 0000745 167.7342 320.2118 01.0027503102640,28.6887,7.45e-05,1.00275031,141.6162,167.7342,320.2118
